$$SOE
2460721.500000000, A.D. 2025-Feb-15 00:00:00.0000, -4.820785653507234E+08, -4.966360427621949E+07, -6.254781138901771E+07,
2460728.500000000, A.D. 2025-Feb-22 00:00:00.0000, -4.790487463327922E+08, -5.888799813013524E+07, -6.134813848662802E+07,
2460735.500000000, A.D. 2025-Mar-01 00:00:00.0000, -4.758169926711630E+08, -6.808761446334757E+07, -6.012260601090305E+07,
2460742.500000000, A.D. 2025-Mar-08 00:00:00.0000, -4.723820087629112E+08, -7.725819506003147E+07, -5.887139541873182E+07,
2460749.500000000, A.D. 2025-Mar-15 00:00:00.0000, -4.687425548360781E+08, -8.639537892364423E+07, -5.759470458813903E+07,
2460756.500000000, A.D. 2025-Mar-22 00:00:00.0000, -4.648974534777800E+08, -9.549470013909081E+07, -5.629274831593993E+07,
2460763.500000000, A.D. 2025-Mar-29 00:00:00.0000, -4.608455950277360E+08, -1.045515880736038E+08, -5.496575914971711E+07,
2460770.500000000, A.D. 2025-Apr-05 00:00:00.0000, -4.565859415179163E+08, -1.135613667897475E+08, -5.361398832683397E+07,
2460777.500000000, A.D. 2025-Apr-12 00:00:00.0000, -4.521175310879574E+08, -1.225192535809595E+08, -5.223770663427132E+07,
2460784.500000000, A.D. 2025-Apr-19 00:00:00.0000, -4.474394830680469E+08, -1.314203575287424E+08, -5.083720524358981E+07,
2460791.500000000, A.D. 2025-Apr-26 00:00:00.0000, -4.425510034640545E+08, -1.402596783042113E+08, -4.941279656254795E+07,
2460798.500000000, A.D. 2025-May-03 00:00:00.0000, -4.374513907387229E+08, -1.490321052151857E+08, -4.796481511236165E+07,
2460805.500000000, A.D. 2025-May-10 00:00:00.0000, -4.321400418676443E+08, -1.577324165109771E+08, -4.649361843235689E+07,
2460812.500000000, A.D. 2025-May-17 00:00:00.0000, -4.266164586395481E+08, -1.663552790074168E+08, -4.499958801807151E+07,
2460819.500000000, A.D. 2025-May-24 00:00:00.0000, -4.208802540316651E+08, -1.748952481091776E+08, -4.348313031197668E+07,
2460826.500000000, A.D. 2025-May-31 00:00:00.0000, -4.149311582452507E+08, -1.833467679423719E+08, -4.194467775793981E+07,
2460833.500000000, A.D. 2025-Jun-07 00:00:00.0000, -4.087690248029009E+08, -1.917041704181716E+08, -4.038468978189718E+07,
2460840.500000000, A.D. 2025-Jun-14 00:00:00.0000, -4.023938390708775E+08, -1.999616739220569E+08, -3.880365353373369E+07,
2460847.500000000, A.D. 2025-Jun-21 00:00:00.0000, -3.958057279877818E+08, -2.081133849304264E+08, -3.720208476664828E+07,
2460854.500000000, A.D. 2025-Jun-28 00:00:00.0000, -3.890049678687207E+08, -2.161533008212550E+08, -3.558052899363349E+07,
2460861.500000000, A.D. 2025-Jul-05 00:00:00.0000, -3.819919917954805E+08, -2.240753117538503E+08, -3.393956260174175E+07,
2460868.500000000, A.D. 2025-Jul-12 00:00:00.0000, -3.747673977736544E+08, -2.318732024563117E+08, -3.227979387617494E+07,
2460875.500000000, A.D. 2025-Jul-19 00:00:00.0000, -3.673319574547144E+08, -2.395406545315756E+08, -3.060186399386647E+07,
2460882.500000000, A.D. 2025-Jul-26 00:00:00.0000, -3.596866251988184E+08, -2.470712493761797E+08, -2.890644800543100E+07,
2460889.500000000, A.D. 2025-Aug-02 00:00:00.0000, -3.518325473960143E+08, -2.544584717283571E+08, -2.719425580410273E+07,
2460896.500000000, A.D. 2025-Aug-09 00:00:00.0000, -3.437710720017440E+08, -2.616957138987595E+08, -2.546603307865416E+07,
2460903.500000000, A.D. 2025-Aug-16 00:00:00.0000, -3.355037581848388E+08, -2.687762807862117E+08, -2.372256225547872E+07,
2460910.500000000, A.D. 2025-Aug-23 00:00:00.0000, -3.270323857662183E+08, -2.756933957016000E+08, -2.196466344762960E+07,
2460917.500000000, A.D. 2025-Aug-30 00:00:00.0000, -3.183589640855950E+08, -2.824402063253767E+08, -2.019319537426156E+07,
2460924.500000000, A.D. 2025-Sep-06 00:00:00.0000, -3.094857416751799E+08, -2.890097898373318E+08, -1.840905602960801E+07,
2460931.500000000, A.D. 2025-Sep-13 00:00:00.0000, -3.004152183664818E+08, -2.953951597403364E+08, -1.661318314162733E+07,
2460938.500000000, A.D. 2025-Sep-20 00:00:00.0000, -2.911501565083700E+08, -3.015892760615824E+08, -1.480655484499122E+07,
2460945.500000000, A.D. 2025-Sep-27 00:00:00.0000, -2.816935901849106E+08, -3.075850558565160E+08, -1.299019040050919E+07,
2460952.500000000, A.D. 2025-Oct-04 00:00:00.0000, -2.720488343900213E+08, -3.133753835088847E+08, -1.116515072039875E+07,
2460959.500000000, A.D. 2025-Oct-11 00:00:00.0000, -2.622194944657537E+08, -3.189531217990162E+08, -9.332538730175510E+06,
2460966.500000000, A.D. 2025-Oct-18 00:00:00.0000, -2.522094754472057E+08, -3.243111240408050E+08, -7.493499603378549E+06,
2460973.500000000, A.D. 2025-Oct-25 00:00:00.0000, -2.420229910957400E+08, -3.294422472989821E+08, -5.649220868626609E+06,
2460980.500000000, A.D. 2025-Nov-01 00:00:00.0000, -2.316645724973613E+08, -3.343393666887414E+08, -3.800932378620684E+06,
2460987.500000000, A.D. 2025-Nov-08 00:00:00.0000, -2.211390761027563E+08, -3.389953908000566E+08, -1.949906133741632E+06,
2460994.500000000, A.D. 2025-Nov-15 00:00:00.0000, -2.104516909667726E+08, -3.434032783086333E+08, -9.745596528998017E+04,
2461001.500000000, A.D. 2025-Nov-22 00:00:00.0000, -1.996079446854444E+08, -3.475560555484623E+08, 1.755062916055441E+06,
2461008.500000000, A.D. 2025-Nov-29 00:00:00.0000, -1.886137080804549E+08, -3.514468338960979E+08, 3.606254626705095E+06,
2461015.500000000, A.D. 2025-Dec-06 00:00:00.0000, -1.774752008009771E+08, -3.550688270757454E+08, 5.454683782382533E+06,
2461022.500000000, A.D. 2025-Dec-13 00:00:00.0000, -1.661989972976600E+08, -3.584153717164445E+08, 7.298876833269820E+06,
2461029.500000000, A.D. 2025-Dec-20 00:00:00.0000, -1.547920295616346E+08, -3.614799500877765E+08, 9.137323336795911E+06,
2461036.500000000, A.D. 2025-Dec-27 00:00:00.0000, -1.432615875866872E+08, -3.642562123595417E+08, 1.096847748870528E+07,
2461043.500000000, A.D. 2026-Jan-03 00:00:00.0000, -1.316153188976296E+08, -3.667379989253230E+08, 1.279076000482234E+07,
2461050.500000000, A.D. 2026-Jan-10 00:00:00.0000, -1.198612269221133E+08, -3.689193633814987E+08, 1.460256029534794E+07,
2461057.500000000, A.D. 2026-Jan-17 00:00:00.0000, -1.080076678663823E+08, -3.707945961523538E+08, 1.640223890876120E+07,
2461064.500000000, A.D. 2026-Jan-24 00:00:00.0000, -9.606334591705900E+07, -3.723582486223793E+08, 1.818813024419567E+07,
2461071.500000000, A.D. 2026-Jan-31 00:00:00.0000, -8.403730665354246E+07, -3.736051576512997E+08, 1.995854553166869E+07,
2461078.500000000, A.D. 2026-Feb-07 00:00:00.0000, -7.193892852712861E+07, -3.745304703818567E+08, 2.171177606958798E+07,
2461085.500000000, A.D. 2026-Feb-14 00:00:00.0000, -5.977791208270933E+07, -3.751296691935558E+08, 2.344609669196334E+07,
2461092.500000000, A.D. 2026-Feb-21 00:00:00.0000, -4.756426647777589E+07, -3.753985960499330E+08, 2.515976947063008E+07,
2461099.500000000, A.D. 2026-Feb-28 00:00:00.0000, -3.530829434166232E+07, -3.753334748983185E+08, 2.685104783650291E+07,
2461106.500000000, A.D. 2026-Mar-07 00:00:00.0000, -2.302057700905193E+07, -3.749309338734909E+08, 2.851818113579765E+07,
2461113.500000000, A.D. 2026-Mar-14 00:00:00.0000, -1.071195734648331E+07, -3.741880294325112E+08, 3.015941915890068E+07,
2461120.500000000, A.D. 2026-Mar-21 00:00:00.0000, 1.606481594184938E+06, -3.731022693141139E+08, 3.177301669510682E+07,
2461127.500000000, A.D. 2026-Mar-28 00:00:00.0000, 1.392344004477328E+07, -3.716716330817755E+08, 3.335723835828479E+07,
2461134.500000000, A.D. 2026-Apr-04 00:00:00.0000, 2.622742644292040E+07, -3.698945910020882E+08, 3.491036363313071E+07,
2461141.500000000, A.D. 2026-Apr-11 00:00:00.0000, 3.850678399063323E+07, -3.677701214064049E+08, 3.643069205733566E+07,
2461148.500000000, A.D. 2026-Apr-18 00:00:00.0000, 5.074971889249552E+07, -3.652977263357116E+08, 3.791654849115381E+07,
2461155.500000000, A.D. 2026-Apr-25 00:00:00.0000, 6.294433017869484E+07, -3.624774452558889E+08, 3.936628843497397E+07,
2461162.500000000, A.D. 2026-May-02 00:00:00.0000, 7.507864097943202E+07, -3.593098666880152E+08, 4.077830335092348E+07,
2461169.500000000, A.D. 2026-May-09 00:00:00.0000, 8.714063118815506E+07, -3.557961376526951E+08, 4.215102593156040E+07,
2461176.500000000, A.D. 2026-May-16 00:00:00.0000, 9.911827168187512E+07, -3.519379706433873E+08, 4.348293525128947E+07,
2461183.500000000, A.D. 2026-May-23 00:00:00.0000, 1.109995599201321E+08, -3.477376469820473E+08, 4.477256183746330E+07,
2461190.500000000, A.D. 2026-May-30 00:00:00.0000, 1.227725545963555E+08, -3.431980161370633E+08, 4.601849283533503E+07,
2461197.500000000, A.D. 2026-Jun-06 00:00:00.0000, 1.344254087633032E+08, -3.383224942022313E+08, 4.721937698552485E+07,
2461204.500000000, A.D. 2026-Jun-13 00:00:00.0000, 1.459464048292912E+08, -3.331150612938004E+08, 4.837392905242518E+07,
2461211.500000000, A.D. 2026-Jun-20 00:00:00.0000, 1.573239906489880E+08, -3.275802549296172E+08, 4.948093394968149E+07,
2461218.500000000, A.D. 2026-Jun-27 00:00:00.0000, 1.685468147319455E+08, -3.217231597527415E+08, 5.053925065432046E+07,
2461225.500000000, A.D. 2026-Jul-04 00:00:00.0000, 1.796037602918932E+08, -3.155493944285203E+08, 5.154781581255953E+07,
2461232.500000000, A.D. 2026-Jul-11 00:00:00.0000, 1.904839781199789E+08, -3.090650959328527E+08, 5.250564697301498E+07,
2461239.500000000, A.D. 2026-Jul-18 00:00:00.0000, 2.011769181139105E+08, -3.022769013223996E+08, 5.341184541450417E+07,
2461246.500000000, A.D. 2026-Jul-25 00:00:00.0000, 2.116723592405835E+08, -2.951919271287445E+08, 5.426559854391034E+07,
2461253.500000000, A.D. 2026-Aug-01 00:00:00.0000, 2.219604377521388E+08, -2.878177465946707E+08, 5.506618183743308E+07,
2461260.500000000, A.D. 2026-Aug-08 00:00:00.0000, 2.320316736661330E+08, -2.801623649821200E+08, 5.581296028963295E+07,
2461267.500000000, A.D. 2026-Aug-15 00:00:00.0000, 2.418769957476481E+08, -2.722341927183401E+08, 5.650538936279360E+07,
2461274.500000000, A.D. 2026-Aug-22 00:00:00.0000, 2.514877640817582E+08, -2.640420153963730E+08, 5.714301560642817E+07,
2461281.500000000, A.D. 2026-Aug-29 00:00:00.0000, 2.608557878222856E+08, -2.555949622538262E+08, 5.772547704944265E+07,
$$EOE